{
  "type": "FeatureCollection",
  "features": [
    {
      "type": "Feature",
      "properties": {
        "norad_id": 33860,
        "name": "IRIDIUM 33 DEB",
        "group": "iridium-33-debris",
        "lat": 86.37970745269791,
        "lon": 120.60292078488482,
        "alt_km": 661.2073162919733,
        "timestamp": "2025-12-08T23:34:04.355871+00:00",
        "meta_object_name": "IRIDIUM 33 DEB",
        "meta_object_id": "1997-051AD",
        "meta_epoch": "2025-12-08T10:20:45.237696",
        "meta_mean_motion": 14.67281531,
        "meta_eccentricity": 0.00080141,
        "meta_inclination": 86.3837,
        "meta_ra_of_asc_node": 29.1451,
        "meta_arg_of_pericenter": 12.6318,
        "meta_mean_anomaly": 49.2169,
        "meta_ephemeris_type": 0,
        "meta_classification_type": "U",
        "meta_norad_cat_id": 33860,
        "meta_element_set_no": 999,
        "meta_rev_at_epoch": 88659,
        "meta_bstar": 0.0015327477,
        "meta_mean_motion_dot": 8.67e-05,
        "meta_mean_motion_ddot": 0,
        "tle_line1": "1 33860U 97051AD  25342.43107914  .00008670  00000+0  15327-2 0  9997",
        "tle_line2": "2 33860  86.3837  29.1451 0008014  12.6318  49.2169 14.67281531886598"
      },
      "geometry": {
        "type": "Point",
        "coordinates": [
          120.60292078488482,
          86.37970745269791
        ]
      }
    },
    {
      "type": "Feature",
      "properties": {
        "norad_id": 33862,
        "name": "IRIDIUM 33 DEB",
        "group": "iridium-33-debris",
        "lat": 81.99621891776292,
        "lon": -167.34168158432328,
        "alt_km": 619.1681477340853,
        "timestamp": "2025-12-08T23:34:04.355882+00:00",
        "meta_object_name": "IRIDIUM 33 DEB",
        "meta_object_id": "1997-051AF",
        "meta_epoch": "2025-12-08T15:29:23.038656",
        "meta_mean_motion": 14.69371874,
        "meta_eccentricity": 0.00537692,
        "meta_inclination": 86.4088,
        "meta_ra_of_asc_node": 39.3355,
        "meta_arg_of_pericenter": 82.8582,
        "meta_mean_anomaly": 34.8096,
        "meta_ephemeris_type": 0,
        "meta_classification_type": "U",
        "meta_norad_cat_id": 33862,
        "meta_element_set_no": 999,
        "meta_rev_at_epoch": 88763,
        "meta_bstar": 0.0017717911,
        "meta_mean_motion_dot": 0.00010737,
        "meta_mean_motion_ddot": 0,
        "tle_line1": "1 33862U 97051AF  25342.64540554  .00010737  00000+0  17718-2 0  9996",
        "tle_line2": "2 33862  86.4088  39.3355 0053769  82.8582  34.8096 14.69371874887631"
      },
      "geometry": {
        "type": "Point",
        "coordinates": [
          -167.34168158432328,
          81.99621891776292
        ]
      }
    },
    {
      "type": "Feature",
      "properties": {
        "norad_id": 33866,
        "name": "IRIDIUM 33 DEB",
        "group": "iridium-33-debris",
        "lat": 37.65285647781758,
        "lon": 97.4870962608225,
        "alt_km": 863.0288316045808,
        "timestamp": "2025-12-08T23:34:04.355894+00:00",
        "meta_object_name": "IRIDIUM 33 DEB",
        "meta_object_id": "1997-051AK",
        "meta_epoch": "2025-12-08T13:20:40.826112",
        "meta_mean_motion": 14.25253144,
        "meta_eccentricity": 0.01141453,
        "meta_inclination": 86.3003,
        "meta_ra_of_asc_node": 94.8057,
        "meta_arg_of_pericenter": 174.7213,
        "meta_mean_anomaly": 199.8029,
        "meta_ephemeris_type": 0,
        "meta_classification_type": "U",
        "meta_norad_cat_id": 33866,
        "meta_element_set_no": 999,
        "meta_rev_at_epoch": 86751,
        "meta_bstar": 0.00123106,
        "meta_mean_motion_dot": 3.117e-05,
        "meta_mean_motion_ddot": 0,
        "tle_line1": "1 33866U 97051AK  25342.55602808  .00003117  00000+0  12311-2 0  9999",
        "tle_line2": "2 33866  86.3003  94.8057 0114145 174.7213 199.8029 14.25253144867518"
      },
      "geometry": {
        "type": "Point",
        "coordinates": [
          97.4870962608225,
          37.65285647781758
        ]
      }
    },
    {
      "type": "Feature",
      "properties": {
        "norad_id": 33867,
        "name": "IRIDIUM 33 DEB",
        "group": "iridium-33-debris",
        "lat": -4.537659790240678,
        "lon": -8.240934210802651,
        "alt_km": 388.6652512009623,
        "timestamp": "2025-12-08T23:34:04.355906+00:00",
        "meta_object_name": "IRIDIUM 33 DEB",
        "meta_object_id": "1997-051AL",
        "meta_epoch": "2025-12-08T12:48:58.472640",
        "meta_mean_motion": 15.60555774,
        "meta_eccentricity": 0.0012895,
        "meta_inclination": 86.363,
        "meta_ra_of_asc_node": 352.2785,
        "meta_arg_of_pericenter": 90.3716,
        "meta_mean_anomaly": 269.9027,
        "meta_ephemeris_type": 0,
        "meta_classification_type": "U",
        "meta_norad_cat_id": 33867,
        "meta_element_set_no": 999,
        "meta_rev_at_epoch": 89445,
        "meta_bstar": 0.0075620123,
        "meta_mean_motion_dot": 0.00677686,
        "meta_mean_motion_ddot": 0,
        "tle_line1": "1 33867U 97051AL  25342.53401010  .00677686  00000+0  75620-2 0  9990",
        "tle_line2": "2 33867  86.3630 352.2785 0012895  90.3716 269.9027 15.60555774894458"
      },
      "geometry": {
        "type": "Point",
        "coordinates": [
          -8.240934210802651,
          -4.537659790240678
        ]
      }
    },
    {
      "type": "Feature",
      "properties": {
        "norad_id": 33870,
        "name": "IRIDIUM 33 DEB",
        "group": "iridium-33-debris",
        "lat": -39.765879579537796,
        "lon": -117.10433419553206,
        "alt_km": 732.8925279897112,
        "timestamp": "2025-12-08T23:34:04.355916+00:00",
        "meta_object_name": "IRIDIUM 33 DEB",
        "meta_object_id": "1997-051AP",
        "meta_epoch": "2025-12-08T04:35:04.159104",
        "meta_mean_motion": 14.45812743,
        "meta_eccentricity": 0.00209812,
        "meta_inclination": 86.3749,
        "meta_ra_of_asc_node": 60.2105,
        "meta_arg_of_pericenter": 193.1042,
        "meta_mean_anomaly": 232.1982,
        "meta_ephemeris_type": 0,
        "meta_classification_type": "U",
        "meta_norad_cat_id": 33870,
        "meta_element_set_no": 999,
        "meta_rev_at_epoch": 88071,
        "meta_bstar": 0.0011351553,
        "meta_mean_motion_dot": 4.056e-05,
        "meta_mean_motion_ddot": 0,
        "tle_line1": "1 33870U 97051AP  25342.19102036  .00004056  00000+0  11352-2 0  9999",
        "tle_line2": "2 33870  86.3749  60.2105 0020981 193.1042 232.1982 14.45812743880714"
      },
      "geometry": {
        "type": "Point",
        "coordinates": [
          -117.10433419553206,
          -39.765879579537796
        ]
      }
    },
    {
      "type": "Feature",
      "properties": {
        "norad_id": 33881,
        "name": "IRIDIUM 33 DEB",
        "group": "iridium-33-debris",
        "lat": -55.677796719058925,
        "lon": 103.06509674287253,
        "alt_km": 731.5920625117024,
        "timestamp": "2025-12-08T23:34:04.355928+00:00",
        "meta_object_name": "IRIDIUM 33 DEB",
        "meta_object_id": "1997-051BA",
        "meta_epoch": "2025-12-08T15:38:57.944256",
        "meta_mean_motion": 14.56454427,
        "meta_eccentricity": 0.00614139,
        "meta_inclination": 86.387,
        "meta_ra_of_asc_node": 108.5186,
        "meta_arg_of_pericenter": 187.9135,
        "meta_mean_anomaly": 186.8708,
        "meta_ephemeris_type": 0,
        "meta_classification_type": "U",
        "meta_norad_cat_id": 33881,
        "meta_element_set_no": 999,
        "meta_rev_at_epoch": 87441,
        "meta_bstar": 0.002883331,
        "meta_mean_motion_dot": 0.00013174,
        "meta_mean_motion_ddot": 0,
        "tle_line1": "1 33881U 97051BA  25342.65205954  .00013174  00000+0  28833-2 0  9998",
        "tle_line2": "2 33881  86.3870 108.5186 0061413 187.9135 186.8708 14.56454427874419"
      },
      "geometry": {
        "type": "Point",
        "coordinates": [
          103.06509674287253,
          -55.677796719058925
        ]
      }
    },
    {
      "type": "Feature",
      "properties": {
        "norad_id": 33884,
        "name": "IRIDIUM 33 DEB",
        "group": "iridium-33-debris",
        "lat": -31.44872353047109,
        "lon": 9.288816339991504,
        "alt_km": 636.9605323508595,
        "timestamp": "2025-12-08T23:34:04.355939+00:00",
        "meta_object_name": "IRIDIUM 33 DEB",
        "meta_object_id": "1997-051BD",
        "meta_epoch": "2025-12-08T14:31:15.449952",
        "meta_mean_motion": 14.77305834,
        "meta_eccentricity": 0.00101346,
        "meta_inclination": 86.3691,
        "meta_ra_of_asc_node": 11.6845,
        "meta_arg_of_pericenter": 339.4756,
        "meta_mean_anomaly": 145.6855,
        "meta_ephemeris_type": 0,
        "meta_classification_type": "U",
        "meta_norad_cat_id": 33884,
        "meta_element_set_no": 999,
        "meta_rev_at_epoch": 88786,
        "meta_bstar": 0.0017784061,
        "meta_mean_motion_dot": 0.00012665,
        "meta_mean_motion_ddot": 0,
        "tle_line1": "1 33884U 97051BD  25342.60503993  .00012665  00000+0  17784-2 0  9997",
        "tle_line2": "2 33884  86.3691  11.6845 0010134 339.4756 145.6855 14.77305834887865"
      },
      "geometry": {
        "type": "Point",
        "coordinates": [
          9.288816339991504,
          -31.44872353047109
        ]
      }
    }
  ]
}